*******************************************************************************
JPL/HORIZONS                  954 Li (A921 PC)             2023-Sep-04 11:09:21
Rec #:     954 (+COV) Soln.date: 2023-Aug-25_02:27:39   # obs: 5073 (1905-2023)
 
IAU76/J2000 helio. ecliptic osc. elements (au, days, deg., period=Julian yrs):
 
  EPOCH=  2457197.5 ! 2015-Jun-24.00 (TDB)         Residual RMS= .27549
   EC= .1721851150792723   QR= 2.591525182358671   TP= 2457407.0043580569
   OM= 163.2400105006712   W=  151.5510104251476   IN= 1.169202426614584
   A= 3.130561227594788    MA= 322.7210362096758   ADIST= 3.669597272830905
   PER= 5.53913            N= .177938846           ANGMOM= .029981769
   DAN= 3.57968            DDN= 2.63833            L= 314.7960177
   B= .5569503             MOID= 1.57758999        TP= 2016-Jan-19.5043580569
 
Asteroid physical parameters (km, seconds, rotational period in hours):
   GM= n.a.                RAD= 29.3855            ROTPER= 7.207
   H= 10.19                G= .150                 B-V= .625
                           ALBEDO= .060            STYP= FCX

ASTEROID comments: 
1: soln ref.= JPL#62, OCC=0
2: source=ORB
*******************************************************************************


*******************************************************************************
Ephemeris / API_USER Mon Sep  4 11:09:21 2023 Pasadena, USA      / Horizons
*******************************************************************************
Target body name: 954 Li (A921 PC)                {source: JPL#62}
Center body name: Solar System Barycenter (0)     {source: DE441}
Center-site name: BODY CENTER
*******************************************************************************
Start time      : A.D. 2023-Aug-12 00:00:00.0000 TDB
Stop  time      : A.D. 2023-Aug-13 00:00:00.0000 TDB
Step-size       : 2880 minutes
*******************************************************************************
Center geodetic : 0.0, 0.0, 0.0                   {E-lon(deg),Lat(deg),Alt(km)}
Center cylindric: 0.0, 0.0, 0.0                   {E-lon(deg),Dxy(km),Dz(km)}
Center radii    : (undefined)
Small perturbers: Yes                             {source: SB441-N16}
Output units    : KM-S
Calendar mode   : Mixed Julian/Gregorian
Output type     : GEOMETRIC cartesian states
Output format   : 2 (position and velocity)
Reference frame : Ecliptic of J2000.0
*******************************************************************************
Initial IAU76/J2000 heliocentric ecliptic osculating elements (au, days, deg.):
  EPOCH=  2457197.5 ! 2015-Jun-24.00 (TDB)         Residual RMS= .27549        
   EC= .1721851150792723   QR= 2.591525182358671   TP= 2457407.0043580569      
   OM= 163.2400105006712   W=  151.5510104251476   IN= 1.169202426614584       
  Equivalent ICRF heliocentric cartesian coordinates (au, au/d):
   X=-3.215054736753988E-01  Y=-2.521461985289344E+00  Z=-1.033097016618624E+00
  VX= 1.100753373232550E-02 VY= 6.237929500723348E-05 VZ=-4.440699312650018E-05
Asteroid physical parameters (km, seconds, rotational period in hours):        
   GM= n.a.                RAD= 29.3855            ROTPER= 7.207               
   H= 10.19                G= .150                 B-V= .625                   
                           ALBEDO= .060            STYP= FCX                   
*******************************************************************************
JDTDB
   X     Y     Z
   VX    VY    VZ
*******************************************************************************
$$SOE
2460168.500000000 = A.D. 2023-Aug-12 00:00:00.0000 TDB 
 X =-8.374649113013871E+07 Y = 5.225119964404269E+08 Z =-9.727573973146945E+06
 VX=-1.473633063119306E+01 VY=-6.215915590612651E-01 VZ= 9.899635903059409E-02
$$EOE
*******************************************************************************
 
TIME

  Barycentric Dynamical Time ("TDB" or T_eph) output was requested. This
continuous coordinate time is equivalent to the relativistic proper time
of a clock at rest in a reference frame co-moving with the solar system
barycenter but outside the system's gravity well. It is the independent
variable in the solar system relativistic equations of motion.

  TDB runs at a uniform rate of one SI second per second and is independent
of irregularities in Earth's rotation.
 
CALENDAR SYSTEM

  Mixed calendar mode was active such that calendar dates after AD 1582-Oct-15
(if any) are in the modern Gregorian system. Dates prior to 1582-Oct-5 (if any)
are in the Julian calendar system, which is automatically extended for dates
prior to its adoption on 45-Jan-1 BC.  The Julian calendar is useful for
matching historical dates. The Gregorian calendar more accurately corresponds
to the Earth's orbital motion and seasons. A "Gregorian-only" calendar mode is
available if such physical events are the primary interest.

REFERENCE FRAME AND COORDINATES

  Ecliptic at the standard reference epoch

    Reference epoch: J2000.0
    X-Y plane: adopted Earth orbital plane at the reference epoch
               Note: IAU76 obliquity of 84381.448 arcseconds wrt ICRF X-Y plane
    X-axis   : ICRF
    Z-axis   : perpendicular to the X-Y plane in the directional (+ or -) sense
               of Earth's north pole at the reference epoch.

  Symbol meaning:

    JDTDB    Julian Day Number, Barycentric Dynamical Time
      X      X-component of position vector (km)
      Y      Y-component of position vector (km)
      Z      Z-component of position vector (km)
      VX     X-component of velocity vector (km/sec)                           
      VY     Y-component of velocity vector (km/sec)                           
      VZ     Z-component of velocity vector (km/sec)                           

ABERRATIONS AND CORRECTIONS

 Geometric state vectors have NO corrections or aberrations applied.

Computations by ...

    Solar System Dynamics Group, Horizons On-Line Ephemeris System
    4800 Oak Grove Drive, Jet Propulsion Laboratory
    Pasadena, CA  91109   USA

    General site: https://ssd.jpl.nasa.gov/
    Mailing list: https://ssd.jpl.nasa.gov/email_list.html
    System news : https://ssd.jpl.nasa.gov/horizons/news.html
    User Guide  : https://ssd.jpl.nasa.gov/horizons/manual.html
    Connect     : browser        https://ssd.jpl.nasa.gov/horizons/app.html#/x
                  API            https://ssd-api.jpl.nasa.gov/doc/horizons.html
                  command-line   telnet ssd.jpl.nasa.gov 6775
                  e-mail/batch   https://ssd.jpl.nasa.gov/ftp/ssd/hrzn_batch.txt
                  scripts        https://ssd.jpl.nasa.gov/ftp/ssd/SCRIPTS
    Author      : Jon.D.Giorgini@jpl.nasa.gov
*******************************************************************************
